              TDR Cartesian                         TDR Cartesian  
    -----------------------------------       --------------------------------
     X    =       13417821.78                 X    =         4089752.08
     Y    =      -17620047.32  feet           Y    =        -5370590.42  meter
     Z    =        2224115.29                 Z    =          677910.34
     XDOT =       9984.314678                 XDOT =        3043.219114
     YDOT =      10109.103632  feet/sec       YDOT =        3081.254787  meter/sec
     ZDOT =      19567.179600                 ZDOT =        5964.076342
  
  
    The mean element set is posted at the UTC for which position is
    just north of the next ascending node relative to the above
    vector time
 
 
    TWO LINE MEAN ELEMENT SET
  
    ISS
    1 25544U 98067A   16052.58035246  .00016717  00000-0  10270-3 0  9048
    2 25544  51.6414 279.5323 0003630 153.5109 206.6230 15.54255298 26845
  
  
    Satellite: ISS
    Catalog Number: 25544
    Epoch time:      16052.58035246   =   yrday.fracday
    Element set:     904
    Inclination:       51.6414  deg
    RA of node:       279.5323  deg
    Eccentricity:     .0003630     
    Arg of perigee:   153.5109  deg
    Mean anomaly:     206.6230  deg
    Mean motion:   15.54255298  rev/day
    Decay rate:    1.67170E-04  rev/day^2
    Epoch rev:            2684
    Checksum:              297
 
 
    Coasting Arc #6 (Orbit 2698)
    ---------------------------------------
 
    Vector Time (GMT): 2016/053/12:25:00.000
    Vector Time (MET): N/A
    Weight (LBS)     : 906643.5
 
              M50 Cartesian                         M50 Keplerian  
    -----------------------------------       --------------------------------
     X    =       -2318341.92                 A    =         6786617.00  meter
     Y    =        5921656.32  meter          E    =           .0009020
     Z    =       -2362213.01                 I    =           51.28557
     XDOT =      -4040.412236                 Wp   =          143.21297
     YDOT =      -3711.190534  meter/sec      RA   =          274.05809  deg
     ZDOT =      -5355.668508                 TA   =           63.29151
                                              MA   =           63.19920
                                              Ha   =            221.580  n.mi
                                              Hp   =            213.889
 
              M50 Cartesian                         J2K Cartesian  
    -----------------------------------       --------------------------------
     X    =       -7606108.67                 X    =        -2372912.70
     Y    =       19428006.30  feet           Y    =         5895425.69  meter
     Z    =       -7750042.68                 Z    =        -2373607.88
     XDOT =     -13255.945657                 XDOT =       -3972.597564
     YDOT =     -12175.821963  feet/sec       YDOT =       -3755.994532  meter/sec
     ZDOT =     -17571.090907                 ZDOT =       -5375.130237
 
              TDR Cartesian                         TDR Cartesian  
    -----------------------------------       --------------------------------
     X    =      -14479204.61                 X    =        -4413261.57
     Y    =       14995610.68  feet           Y    =         4570662.13  meter
     Z    =       -7800498.30                 Z    =        -2377591.88
     XDOT =      -6319.680402                 XDOT =       -1926.238586
     YDOT =     -15255.737162  feet/sec       YDOT =       -4649.948687  meter/sec
     ZDOT =     -17654.778697                 ZDOT =       -5381.176547
  
  
    The mean element set is posted at the UTC for which position is
    just north of the next ascending node relative to the above
    vector time
 
 
    TWO LINE MEAN ELEMENT SET
  
    ISS
    1 25544U 98067A   16053.54481196  .00016717  00000-0  10270-3 0  9055
    2 25544  51.6403 274.7232 0003583 158.3174 201.8131 15.54235552 26995
  
  
    Satellite: ISS
    Catalog Number: 25544
    Epoch time:      16053.54481196   =   yrday.fracday
    Element set:     905
    Inclination:       51.6403  deg
    RA of node:       274.7232  deg
    Eccentricity:     .0003583     
    Arg of perigee:   158.3174  deg
    Mean anomaly:     201.8131  deg
    Mean motion:   15.54235552  rev/day
    Decay rate:    1.67170E-04  rev/day^2
    Epoch rev:            2699
    Checksum:              304
 
 
    Coasting Arc #7 (Orbit 2714)
    ---------------------------------------
 
    Vector Time (GMT): 2016/054/12:25:00.000
    Vector Time (MET): N/A
    Weight (LBS)     : 906643.5
 
              M50 Cartesian                         M50 Keplerian  
    -----------------------------------       --------------------------------
     X    =        2939620.22                 A    =         6782864.64  meter
     Y    =       -4810672.89  meter          E    =           .0013370
     Z    =        3764430.63                 I    =           51.27126
     XDOT =       3456.482490                 Wp   =          110.24962
     YDOT =       5409.833405  meter/sec      RA   =          269.04997  deg
     ZDOT =       4197.524534                 TA   =          295.13407
                                              MA   =          295.27271
                                              Ha   =            221.444  n.mi
                                              Hp   =            213.939
 
              M50 Cartesian                         J2K Cartesian  
    -----------------------------------       --------------------------------
     X    =        9644423.29                 X    =         2974910.27
     Y    =      -15783047.55  feet           Y    =        -4777602.31  meter
     Z    =       12350494.19                 Z    =         3778796.60
     XDOT =      11340.165648                 XDOT =        3375.342154
     YDOT =      17748.797262  feet/sec       YDOT =        5448.032938  meter/sec
     ZDOT =      13771.405950                 ZDOT =        4214.117147
 
              TDR Cartesian                         TDR Cartesian  
    -----------------------------------       --------------------------------
     X    =       14733488.65                 X    =         4490767.34
     Y    =      -11112183.99  feet           Y    =        -3386993.68  meter
     Z    =       12413616.57                 Z    =         3783670.33
     XDOT =       3060.109497                 XDOT =         932.721375
     YDOT =      19581.839097  feet/sec       YDOT =        5968.544557  meter/sec
     ZDOT =      13842.366170                 ZDOT =        4219.153209
  
  
    The mean element set is posted at the UTC for which position is
    just north of the next ascending node relative to the above
    vector time
 
 
    TWO LINE MEAN ELEMENT SET
  
    ISS
    1 25544U 98067A   16054.57355426  .00016717  00000-0  10270-3 0  9066
    2 25544  51.6396 269.5921 0003433 161.4041 198.7238 15.54263606 27157
  
  
    Satellite: ISS
    Catalog Number: 25544
    Epoch time:      16054.57355426   =   yrday.fracday
    Element set:     906
    Inclination:       51.6396  deg
    RA of node:       269.5921  deg
    Eccentricity:     .0003433     
    Arg of perigee:   161.4041  deg
    Mean anomaly:     198.7238  deg
    Mean motion:   15.54263606  rev/day
    Decay rate:    1.67170E-04  rev/day^2
    Epoch rev:            2715
    Checksum:              317
 
 
    Coasting Arc #8 (Orbit 2729)
    ---------------------------------------
 
    Vector Time (GMT): 2016/055/12:25:00.000
    Vector Time (MET): N/A
    Weight (LBS)     : 906643.5
 
              M50 Cartesian                         M50 Keplerian  
    -----------------------------------       --------------------------------
     X    =       -3519495.45                 A    =         6779056.99  meter
     Y    =        3278023.40  meter          E    =           .0011791
     Z    =       -4787699.85                 I    =           51.25897
     XDOT =      -2755.688302                 Wp   =           89.13738
     YDOT =      -6676.303778  meter/sec      RA   =          264.03088  deg
     ZDOT =      -2550.656552                 TA   =          155.61812
                                              MA   =          155.56230
                                              Ha   =            221.370  n.mi
                                              Hp   =            213.864
 
              M50 Cartesian                         J2K Cartesian  
    -----------------------------------       --------------------------------
     X    =      -11546901.08                 X    =        -3532633.36
     Y    =       10754669.94  feet           Y    =         3238591.95  meter
     Z    =      -15707676.68                 Z    =        -4804828.74
     XDOT =      -9040.972121                 XDOT =       -2668.437635
     YDOT =     -21903.883785  feet/sec       YDOT =       -6706.632214  meter/sec
     ZDOT =      -8368.295773                 ZDOT =       -2563.829934
 
              TDR Cartesian                         TDR Cartesian  
    -----------------------------------       --------------------------------
     X    =      -14515384.70                 X    =        -4424289.26
     Y    =        5995113.09  feet           Y    =         1827310.47  meter
     Z    =      -15782496.10                 Z    =        -4810504.81
     XDOT =       -197.334278                 XDOT =         -60.147488
     YDOT =     -22609.590356  feet/sec       YDOT =       -6891.403140  meter/sec
     ZDOT =      -8424.226555                 ZDOT =       -2567.704254
  
  
    The mean element set is posted at the UTC for which position is
    just north of the next ascending node relative to the above
    vector time
 
 
    TWO LINE MEAN ELEMENT SET
  
    ISS
    1 25544U 98067A   16055.53798656  .00016717  00000-0  10270-3 0  9070
    2 25544  51.6383 264.7819 0003507 165.1166 195.0091 15.54292368 27308
  
